[{"OBJECT_NAME":"STARLINK-35267","OBJECT_ID":"2025-207A","EPOCH":"2025-10-16T03:31:28.278048","MEAN_MOTION":15.39347541,"ECCENTRICITY":0.0001651,"INCLINATION":97.6053,"RA_OF_ASC_NODE":352.6459,"ARG_OF_PERICENTER":88.0253,"MEAN_ANOMALY":272.1181,"EPHEMERIS_TYPE":0,"CLASSIFICATION_TYPE":"U","NORAD_CAT_ID":65592,"ELEMENT_SET_NO":999,"REV_AT_EPOCH":627,"BSTAR":-0.00015322,"MEAN_MOTION_DOT":-6.059e-5,"MEAN_MOTION_DDOT":0},{"OBJECT_NAME":"STARLINK-35269","OBJECT_ID":"2025-207B","EPOCH":"2025-10-16T04:00:03.000096","MEAN_MOTION":15.39254957,"ECCENTRICITY":0.0001559,"INCLINATION":97.6045,"RA_OF_ASC_NODE":352.7522,"ARG_OF_PERICENTER":90.4791,"MEAN_ANOMALY":207.5836,"EPHEMERIS_TYPE":0,"CLASSIFICATION_TYPE":"U","NORAD_CAT_ID":65593,"ELEMENT_SET_NO":999,"REV_AT_EPOCH":607,"BSTAR":0.0023185,"MEAN_MOTION_DOT":0.0009116,"MEAN_MOTION_DDOT":0},{"OBJECT_NAME":"STARLINK-35191","OBJECT_ID":"2025-207C","EPOCH":"2025-10-16T03:06:31.125024","MEAN_MOTION":15.39375373,"ECCENTRICITY":0.0002365,"INCLINATION":97.6012,"RA_OF_ASC_NODE":352.6688,"ARG_OF_PERICENTER":98.3497,"MEAN_ANOMALY":261.8016,"EPHEMERIS_TYPE":0,"CLASSIFICATION_TYPE":"U","NORAD_CAT_ID":65594,"ELEMENT_SET_NO":999,"REV_AT_EPOCH":611,"BSTAR":0.0010838,"MEAN_MOTION_DOT":0.00042465,"MEAN_MOTION_DDOT":0},{"OBJECT_NAME":"STARLINK-35261","OBJECT_ID":"2025-207D","EPOCH":"2025-10-16T04:00:03.000096","MEAN_MOTION":15.40395549,"ECCENTRICITY":0.0001246,"INCLINATION":97.6039,"RA_OF_ASC_NODE":352.7915,"ARG_OF_PERICENTER":67.0363,"MEAN_ANOMALY":318.396,"EPHEMERIS_TYPE":0,"CLASSIFICATION_TYPE":"U","NORAD_CAT_ID":65595,"ELEMENT_SET_NO":999,"REV_AT_EPOCH":607,"BSTAR":-0.040227,"MEAN_MOTION_DOT":-0.01470921,"MEAN_MOTION_DDOT":0},{"OBJECT_NAME":"STARLINK-35253","OBJECT_ID":"2025-207E","EPOCH":"2025-10-16T03:18:27.686016","MEAN_MOTION":15.39439115,"ECCENTRICITY":0.0002205,"INCLINATION":97.6046,"RA_OF_ASC_NODE":352.6591,"ARG_OF_PERICENTER":104.6836,"MEAN_ANOMALY":255.4653,"EPHEMERIS_TYPE":0,"CLASSIFICATION_TYPE":"U","NORAD_CAT_ID":65596,"ELEMENT_SET_NO":999,"REV_AT_EPOCH":607,"BSTAR":0.0020401,"MEAN_MOTION_DOT":0.00080578,"MEAN_MOTION_DDOT":0},{"OBJECT_NAME":"STARLINK-35263","OBJECT_ID":"2025-207F","EPOCH":"2025-10-16T04:28:09.757920","MEAN_MOTION":15.39348283,"ECCENTRICITY":0.0001739,"INCLINATION":97.6039,"RA_OF_ASC_NODE":352.7501,"ARG_OF_PERICENTER":91.312,"MEAN_ANOMALY":268.8324,"EPHEMERIS_TYPE":0,"CLASSIFICATION_TYPE":"U","NORAD_CAT_ID":65597,"ELEMENT_SET_NO":999,"REV_AT_EPOCH":629,"BSTAR":0.0012818,"MEAN_MOTION_DOT":0.00050243,"MEAN_MOTION_DDOT":0},{"OBJECT_NAME":"STARLINK-35248","OBJECT_ID":"2025-207G","EPOCH":"2025-10-16T04:00:03.000096","MEAN_MOTION":15.39292019,"ECCENTRICITY":0.0001819,"INCLINATION":97.6044,"RA_OF_ASC_NODE":352.7709,"ARG_OF_PERICENTER":80.6305,"MEAN_ANOMALY":261.3868,"EPHEMERIS_TYPE":0,"CLASSIFICATION_TYPE":"U","NORAD_CAT_ID":65598,"ELEMENT_SET_NO":999,"REV_AT_EPOCH":607,"BSTAR":0.0016524,"MEAN_MOTION_DOT":0.000648,"MEAN_MOTION_DDOT":0},{"OBJECT_NAME":"STARLINK-35245","OBJECT_ID":"2025-207H","EPOCH":"2025-10-16T00:00:02.000160","MEAN_MOTION":15.44428926,"ECCENTRICITY":0.00020848,"INCLINATION":97.6037,"RA_OF_ASC_NODE":352.6339,"ARG_OF_PERICENTER":70.4925,"MEAN_ANOMALY":141.1913,"EPHEMERIS_TYPE":0,"CLASSIFICATION_TYPE":"U","NORAD_CAT_ID":65599,"ELEMENT_SET_NO":999,"REV_AT_EPOCH":604,"BSTAR":-0.03779623,"MEAN_MOTION_DOT":-0.0157209,"MEAN_MOTION_DDOT":0},{"OBJECT_NAME":"STARLINK-35229","OBJECT_ID":"2025-207J","EPOCH":"2025-10-15T14:55:51.215520","MEAN_MOTION":15.39394471,"ECCENTRICITY":0.00012559,"INCLINATION":97.6045,"RA_OF_ASC_NODE":352.113,"ARG_OF_PERICENTER":93.6697,"MEAN_ANOMALY":266.4692,"EPHEMERIS_TYPE":0,"CLASSIFICATION_TYPE":"U","NORAD_CAT_ID":65600,"ELEMENT_SET_NO":999,"REV_AT_EPOCH":620,"BSTAR":0.0012210676,"MEAN_MOTION_DOT":0.00047916,"MEAN_MOTION_DDOT":0},{"OBJECT_NAME":"STARLINK-35234","OBJECT_ID":"2025-207K","EPOCH":"2025-10-16T03:12:45.466848","MEAN_MOTION":15.39371664,"ECCENTRICITY":0.0001512,"INCLINATION":97.6051,"RA_OF_ASC_NODE":352.6644,"ARG_OF_PERICENTER":89.425,"MEAN_ANOMALY":270.7168,"EPHEMERIS_TYPE":0,"CLASSIFICATION_TYPE":"U","NORAD_CAT_ID":65601,"ELEMENT_SET_NO":999,"REV_AT_EPOCH":628,"BSTAR":0.0012885,"MEAN_MOTION_DOT":0.00050547,"MEAN_MOTION_DDOT":0},{"OBJECT_NAME":"STARLINK-35255","OBJECT_ID":"2025-207L","EPOCH":"2025-10-16T00:00:02.000160","MEAN_MOTION":15.39285923,"ECCENTRICITY":0.00016273,"INCLINATION":97.6044,"RA_OF_ASC_NODE":352.5672,"ARG_OF_PERICENTER":93.4124,"MEAN_ANOMALY":337.5459,"EPHEMERIS_TYPE":0,"CLASSIFICATION_TYPE":"U","NORAD_CAT_ID":65602,"ELEMENT_SET_NO":999,"REV_AT_EPOCH":605,"BSTAR":0.0017389784,"MEAN_MOTION_DOT":0.00068216,"MEAN_MOTION_DDOT":0},{"OBJECT_NAME":"STARLINK-35250","OBJECT_ID":"2025-207M","EPOCH":"2025-10-16T04:00:03.000096","MEAN_MOTION":15.39279866,"ECCENTRICITY":0.0001151,"INCLINATION":97.6043,"RA_OF_ASC_NODE":352.7816,"ARG_OF_PERICENTER":53.1025,"MEAN_ANOMALY":308.8866,"EPHEMERIS_TYPE":0,"CLASSIFICATION_TYPE":"U","NORAD_CAT_ID":65603,"ELEMENT_SET_NO":999,"REV_AT_EPOCH":607,"BSTAR":0.0027475,"MEAN_MOTION_DOT":0.00108372,"MEAN_MOTION_DDOT":0},{"OBJECT_NAME":"STARLINK-35251","OBJECT_ID":"2025-207N","EPOCH":"2025-10-15T22:19:27.636672","MEAN_MOTION":15.3940353,"ECCENTRICITY":0.00017138,"INCLINATION":97.6037,"RA_OF_ASC_NODE":352.4737,"ARG_OF_PERICENTER":72.641,"MEAN_ANOMALY":287.5023,"EPHEMERIS_TYPE":0,"CLASSIFICATION_TYPE":"U","NORAD_CAT_ID":65604,"ELEMENT_SET_NO":999,"REV_AT_EPOCH":625,"BSTAR":0.0017763851,"MEAN_MOTION_DOT":0.0006997,"MEAN_MOTION_DDOT":0},{"OBJECT_NAME":"STARLINK-35171","OBJECT_ID":"2025-207P","EPOCH":"2025-10-16T04:00:03.000096","MEAN_MOTION":15.39262335,"ECCENTRICITY":0.0001154,"INCLINATION":97.6047,"RA_OF_ASC_NODE":352.7607,"ARG_OF_PERICENTER":75.7023,"MEAN_ANOMALY":240.3381,"EPHEMERIS_TYPE":0,"CLASSIFICATION_TYPE":"U","NORAD_CAT_ID":65605,"ELEMENT_SET_NO":999,"REV_AT_EPOCH":607,"BSTAR":0.0025909,"MEAN_MOTION_DOT":0.0010205,"MEAN_MOTION_DDOT":0},{"OBJECT_NAME":"STARLINK-35195","OBJECT_ID":"2025-207Q","EPOCH":"2025-10-16T04:00:03.000096","MEAN_MOTION":15.44513796,"ECCENTRICITY":0.0001574,"INCLINATION":97.6039,"RA_OF_ASC_NODE":352.816,"ARG_OF_PERICENTER":60.9026,"MEAN_ANOMALY":13.4975,"EPHEMERIS_TYPE":0,"CLASSIFICATION_TYPE":"U","NORAD_CAT_ID":65606,"ELEMENT_SET_NO":999,"REV_AT_EPOCH":607,"BSTAR":-0.038046,"MEAN_MOTION_DOT":-0.01585373,"MEAN_MOTION_DDOT":0},{"OBJECT_NAME":"STARLINK-35156","OBJECT_ID":"2025-207R","EPOCH":"2025-10-16T04:00:03.000096","MEAN_MOTION":15.40971752,"ECCENTRICITY":0.0001937,"INCLINATION":97.6038,"RA_OF_ASC_NODE":352.8029,"ARG_OF_PERICENTER":60.462,"MEAN_ANOMALY":352.2487,"EPHEMERIS_TYPE":0,"CLASSIFICATION_TYPE":"U","NORAD_CAT_ID":65607,"ELEMENT_SET_NO":999,"REV_AT_EPOCH":607,"BSTAR":-0.045391,"MEAN_MOTION_DOT":-0.01668962,"MEAN_MOTION_DDOT":0}]
