STARLINK-35267          
1 65592U 25207A   25289.14685507 -.00006059  00000+0 -15322-3 0  9992
2 65592  97.6053 352.6459 0001651  88.0253 272.1181 15.39347541  6271
STARLINK-35269          
1 65593U 25207B   25289.16670139  .00091160  00000+0  23185-2 0  9990
2 65593  97.6045 352.7522 0001559  90.4791 207.5836 15.39254957  6071
STARLINK-35191          
1 65594U 25207C   25289.12952691  .00042465  00000+0  10838-2 0  9998
2 65594  97.6012 352.6688 0002365  98.3497 261.8016 15.39375373  6118
STARLINK-35261          
1 65595U 25207D   25289.16670139 -.01470921  00000+0 -40227-1 0  9996
2 65595  97.6039 352.7915 0001246  67.0363 318.3960 15.40395549  6074
STARLINK-35253          
1 65596U 25207E   25289.13782044  .00080578  00000+0  20401-2 0  9998
2 65596  97.6046 352.6591 0002205 104.6836 255.4653 15.39439115  6077
STARLINK-35263          
1 65597U 25207F   25289.18622405  .00050243  00000+0  12818-2 0  9997
2 65597  97.6039 352.7501 0001739  91.3120 268.8324 15.39348283  6293
STARLINK-35248          
1 65598U 25207G   25289.16670139  .00064800  00000+0  16524-2 0  9995
2 65598  97.6044 352.7709 0001819  80.6305 261.3868 15.39292019  6077
STARLINK-35245          
1 65599U 25207H   25289.00002315 -.01572090  00000+0 -37796-1 0  9995
2 65599  97.6037 352.6339 0002084  70.4925 141.1913 15.44428926  6045
STARLINK-35229          
1 65600U 25207J   25288.62212055  .00047916  00000+0  12211-2 0  9996
2 65600  97.6045 352.1130 0001255  93.6697 266.4692 15.39394471  6207
STARLINK-35234          
1 65601U 25207K   25289.13385957  .00050547  00000+0  12885-2 0  9997
2 65601  97.6051 352.6644 0001512  89.4250 270.7168 15.39371664  6287
STARLINK-35255          
1 65602U 25207L   25289.00002315  .00068216  00000+0  17390-2 0  9996
2 65602  97.6044 352.5672 0001627  93.4124 337.5459 15.39285923  6054
STARLINK-35250          
1 65603U 25207M   25289.16670139  .00108372  00000+0  27475-2 0  9992
2 65603  97.6043 352.7816 0001151  53.1025 308.8866 15.39279866  6075
STARLINK-35251          
1 65604U 25207N   25288.93018098  .00069970  00000+0  17764-2 0  9997
2 65604  97.6037 352.4737 0001713  72.6410 287.5023 15.39403530  6251
STARLINK-35171          
1 65605U 25207P   25289.16670139  .00102050  00000+0  25909-2 0  9991
2 65605  97.6047 352.7607 0001154  75.7023 240.3381 15.39262335  6075
STARLINK-35195          
1 65606U 25207Q   25289.16670139 -.01585373  00000+0 -38046-1 0  9993
2 65606  97.6039 352.8160 0001574  60.9026  13.4975 15.44513796  6071
STARLINK-35156          
1 65607U 25207R   25289.16670139 -.01668962  00000+0 -45391-1 0  9991
2 65607  97.6038 352.8029 0001937  60.4620 352.2487 15.40971752  6071
